{"type": "FeatureCollection", "features": [ {"type": "Feature", "properties": {"norad_id": 38755, "name": "SPOT 6", "group": "resource", "lat": 63.71846474316246, "lon": 31.28217044690887, "alt_km": 690.8163300304386, "timestamp": "2025-12-09T07:41:32.859782+00:00", "meta": {"OBJECT_NAME": "SPOT 6", "OBJECT_ID": "2012-047A", "EPOCH": "2025-12-08T23:09:50.066784", "MEAN_MOTION": 14.58597202, "ECCENTRICITY": 0.00010999, "INCLINATION": 98.1575, "RA_OF_ASC_NODE": 47.8191, "ARG_OF_PERICENTER": 96.9015, "MEAN_ANOMALY": 263.231, "EPHEMERIS_TYPE": 0, "CLASSIFICATION_TYPE": "U", "NORAD_CAT_ID": 38755, "ELEMENT_SET_NO": 999, "REV_AT_EPOCH": 70532, "BSTAR": 0.00012182892, "MEAN_MOTION_DOT": 5.22e-06, "MEAN_MOTION_DDOT": 0}, "tle": {"line1": "1 38755U 12047A   25342.96516281  .00000522  00000+0  12183-3 0  9992", "line2": "2 38755  98.1575  47.8191 0001099  96.9015 263.2310 14.58597202705321"}}, "geometry": {"type": "Point", "coordinates": [31.28217044690887, 63.71846474316246]}}, {"type": "Feature", "properties": {"norad_id": 39019, "name": "PLEIADES 1B", "group": "resource", "lat": -35.53691005827624, "lon": 61.923180592768574, "alt_km": 704.5470544048294, "timestamp": "2025-12-09T07:41:32.859792+00:00", "meta": {"OBJECT_NAME": "PLEIADES 1B", "OBJECT_ID": "2012-068A", "EPOCH": "2025-12-08T23:37:29.123040", "MEAN_MOTION": 14.58546692, "ECCENTRICITY": 0.00012582, "INCLINATION": 98.1798, "RA_OF_ASC_NODE": 55.6955, "ARG_OF_PERICENTER": 81.4594, "MEAN_ANOMALY": 278.6748, "EPHEMERIS_TYPE": 0, "CLASSIFICATION_TYPE": "U", "NORAD_CAT_ID": 39019, "ELEMENT_SET_NO": 999, "REV_AT_EPOCH": 69312, "BSTAR": 0.00012183843, "MEAN_MOTION_DOT": 5.21e-06, "MEAN_MOTION_DDOT": 0}, "tle": {"line1": "1 39019U 12068A   25342.98436485  .00000521  00000+0  12184-3 0  9998", "line2": "2 39019  98.1798  55.6955 0001258  81.4594 278.6748 14.58546692693121"}}, "geometry": {"type": "Point", "coordinates": [61.923180592768574, -35.53691005827624]}}, {"type": "Feature", "properties": {"norad_id": 39030, "name": "GOKTURK 2", "group": "resource", "lat": -25.957646662558624, "lon": -171.08726556165823, "alt_km": 650.2790304132168, "timestamp": "2025-12-09T07:41:32.859803+00:00", "meta": {"OBJECT_NAME": "GOKTURK 2", "OBJECT_ID": "2012-073A", "EPOCH": "2025-12-08T22:02:39.223392", "MEAN_MOTION": 14.75282904, "ECCENTRICITY": 9.08e-05, "INCLINATION": 97.6889, "RA_OF_ASC_NODE": 184.7597, "ARG_OF_PERICENTER": 96.5244, "MEAN_ANOMALY": 263.607, "EPHEMERIS_TYPE": 0, "CLASSIFICATION_TYPE": "U", "NORAD_CAT_ID": 39030, "ELEMENT_SET_NO": 999, "REV_AT_EPOCH": 69645, "BSTAR": 0.00016275306, "MEAN_MOTION_DOT": 1.055e-05, "MEAN_MOTION_DDOT": 0}, "tle": {"line1": "1 39030U 12073A   25342.91850953  .00001055  00000+0  16275-3 0  9998", "line2": "2 39030  97.6889 184.7597 0000908  96.5244 263.6070 14.75282904696458"}}, "geometry": {"type": "Point", "coordinates": [-171.08726556165823, -25.957646662558624]}}, {"type": "Feature", "properties": {"norad_id": 39084, "name": "LANDSAT 8", "group": "resource", "lat": 27.705011845111194, "lon": -124.20886239448528, "alt_km": 701.0340801826469, "timestamp": "2025-12-09T07:41:32.859813+00:00", "meta": {"OBJECT_NAME": "LANDSAT 8", "OBJECT_ID": "2013-008A", "EPOCH": "2025-12-08T22:45:26.798112", "MEAN_MOTION": 14.57107885, "ECCENTRICITY": 0.00011207, "INCLINATION": 98.2076, "RA_OF_ASC_NODE": 51.0776, "ARG_OF_PERICENTER": 87.1267, "MEAN_ANOMALY": 273.006, "EPHEMERIS_TYPE": 0, "CLASSIFICATION_TYPE": "U", "NORAD_CAT_ID": 39084, "ELEMENT_SET_NO": 999, "REV_AT_EPOCH": 67019, "BSTAR": 0.00015671887, "MEAN_MOTION_DOT": 6.61e-06, "MEAN_MOTION_DDOT": 0}, "tle": {"line1": "1 39084U 13008A   25342.94822683  .00000661  00000+0  15672-3 0  9990", "line2": "2 39084  98.2076  51.0776 0001120  87.1267 273.0060 14.57107885670196"}}, "geometry": {"type": "Point", "coordinates": [-124.20886239448528, 27.705011845111194]}}, {"type": "Feature", "properties": {"norad_id": 39086, "name": "SARAL", "group": "resource", "lat": 74.31650162629161, "lon": 134.89551579825815, "alt_km": 773.8504920815885, "timestamp": "2025-12-09T07:41:32.859824+00:00", "meta": {"OBJECT_NAME": "SARAL", "OBJECT_ID": "2013-009A", "EPOCH": "2025-12-08T22:57:18.285696", "MEAN_MOTION": 14.32754907, "ECCENTRICITY": 0.00027903, "INCLINATION": 98.5504, "RA_OF_ASC_NODE": 166.9363, "ARG_OF_PERICENTER": 115.9444, "MEAN_ANOMALY": 244.2027, "EPHEMERIS_TYPE": 0, "CLASSIFICATION_TYPE": "U", "NORAD_CAT_ID": 39086, "ELEMENT_SET_NO": 999, "REV_AT_EPOCH": 66836, "BSTAR": 8.8706904e-05, "MEAN_MOTION_DOT": 1.98e-06, "MEAN_MOTION_DDOT": 0}, "tle": {"line1": "1 39086U 13009A   25342.95646164  .00000198  00000+0  88707-4 0  9997", "line2": "2 39086  98.5504 166.9363 0002790 115.9444 244.2027 14.32754907668361"}}, "geometry": {"type": "Point", "coordinates": [134.89551579825815, 74.31650162629161]}}, {"type": "Feature", "properties": {"norad_id": 39150, "name": "GAOFEN-1", "group": "resource", "lat": 35.92621349569547, "lon": 48.241382157251266, "alt_km": 643.5901391140696, "timestamp": "2025-12-09T07:41:32.859834+00:00", "meta": {"OBJECT_NAME": "GAOFEN-1", "OBJECT_ID": "2013-018A", "EPOCH": "2025-12-08T23:23:45.292992", "MEAN_MOTION": 14.76524382, "ECCENTRICITY": 0.00179527, "INCLINATION": 97.9329, "RA_OF_ASC_NODE": 53.7006, "ARG_OF_PERICENTER": 154.6644, "MEAN_ANOMALY": 205.545, "EPHEMERIS_TYPE": 0, "CLASSIFICATION_TYPE": "U", "NORAD_CAT_ID": 39150, "ELEMENT_SET_NO": 999, "REV_AT_EPOCH": 68017, "BSTAR": 0.00021592259, "MEAN_MOTION_DOT": 1.458e-05, "MEAN_MOTION_DDOT": 0}, "tle": {"line1": "1 39150U 13018A   25342.97482978  .00001458  00000+0  21592-3 0  9990", "line2": "2 39150  97.9329  53.7006 0017952 154.6644 205.5450 14.76524382680179"}}, "geometry": {"type": "Point", "coordinates": [48.241382157251266, 35.92621349569547]}}, {"type": "Feature", "properties": {"norad_id": 39160, "name": "VNREDSAT 1", "group": "resource", "lat": -60.87000004718575, "lon": -155.78400434264123, "alt_km": 685.4210670951006, "timestamp": "2025-12-09T07:41:32.859845+00:00", "meta": {"OBJECT_NAME": "VNREDSAT 1", "OBJECT_ID": "2013-021B", "EPOCH": "2025-12-08T22:23:43.499904", "MEAN_MOTION": 14.64913946, "ECCENTRICITY": 0.00013494, "INCLINATION": 97.9376, "RA_OF_ASC_NODE": 38.3413, "ARG_OF_PERICENTER": 79.6996, "MEAN_ANOMALY": 280.4359, "EPHEMERIS_TYPE": 0, "CLASSIFICATION_TYPE": "U", "NORAD_CAT_ID": 39160, "ELEMENT_SET_NO": 999, "REV_AT_EPOCH": 67243, "BSTAR": 0.00020330369, "MEAN_MOTION_DOT": 1.042e-05, "MEAN_MOTION_DDOT": 0}, "tle": {"line1": "1 39160U 13021B   25342.93314236  .00001042  00000+0  20330-3 0  9990", "line2": "2 39160  97.9376  38.3413 0001349  79.6996 280.4359 14.64913946672437"}}, "geometry": {"type": "Point", "coordinates": [-155.78400434264123, -60.87000004718575]}}, {"type": "Feature", "properties": {"norad_id": 39227, "name": "ARIRANG-5 (KOMPSAT-5)", "group": "resource", "lat": -13.967158219297298, "lon": -14.232874401138256, "alt_km": 559.2567973361774, "timestamp": "2025-12-09T07:41:32.859856+00:00", "meta": {"OBJECT_NAME": "ARIRANG-5 (KOMPSAT-5)", "OBJECT_ID": "2013-042A", "EPOCH": "2025-12-08T22:51:08.686368", "MEAN_MOTION": 15.04534198, "ECCENTRICITY": 0.00038509, "INCLINATION": 97.6142, "RA_OF_ASC_NODE": 167.3109, "ARG_OF_PERICENTER": 67.1516, "MEAN_ANOMALY": 293.0116, "EPHEMERIS_TYPE": 0, "CLASSIFICATION_TYPE": "U", "NORAD_CAT_ID": 39227, "ELEMENT_SET_NO": 999, "REV_AT_EPOCH": 67525, "BSTAR": 0.00028456926, "MEAN_MOTION_DOT": 3.928e-05, "MEAN_MOTION_DDOT": 0}, "tle": {"line1": "1 39227U 13042A   25342.95218387  .00003928  00000+0  28457-3 0  9992", "line2": "2 39227  97.6142 167.3109 0003850  67.1516 293.0116 15.04534198675250"}}, "geometry": {"type": "Point", "coordinates": [-14.232874401138256, -13.967158219297298]}}, {"type": "Feature", "properties": {"norad_id": 39418, "name": "SKYSAT-A", "group": "resource", "lat": 59.458689039717505, "lon": -133.6228734657429, "alt_km": 534.8432307753455, "timestamp": "2025-12-09T07:41:32.859866+00:00", "meta": {"OBJECT_NAME": "SKYSAT-A", "OBJECT_ID": "2013-066C", "EPOCH": "2025-12-08T23:13:09.414912", "MEAN_MOTION": 15.11558162, "ECCENTRICITY": 0.00206861, "INCLINATION": 97.4108, "RA_OF_ASC_NODE": 33.2904, "ARG_OF_PERICENTER": 250.6647, "MEAN_ANOMALY": 109.2347, "EPHEMERIS_TYPE": 0, "CLASSIFICATION_TYPE": "U", "NORAD_CAT_ID": 39418, "ELEMENT_SET_NO": 999, "REV_AT_EPOCH": 65973, "BSTAR": 0.00030781706, "MEAN_MOTION_DOT": 5.183e-05, "MEAN_MOTION_DDOT": 0}, "tle": {"line1": "1 39418U 13066C   25342.96747008  .00005183  00000+0  30782-3 0  9997", "line2": "2 39418  97.4108  33.2904 0020686 250.6647 109.2347 15.11558162659730"}}, "geometry": {"type": "Point", "coordinates": [-133.6228734657429, 59.458689039717505]}}, {"type": "Feature", "properties": {"norad_id": 39419, "name": "DUBAISAT-2", "group": "resource", "lat": -57.50512040590741, "lon": -14.320401235806369, "alt_km": 542.006885420953, "timestamp": "2025-12-09T07:41:32.859876+00:00", "meta": {"OBJECT_NAME": "DUBAISAT-2", "OBJECT_ID": "2013-066D", "EPOCH": "2025-12-08T22:23:48.118848", "MEAN_MOTION": 15.08296266, "ECCENTRICITY": 0.00110151, "INCLINATION": 97.4446, "RA_OF_ASC_NODE": 333.4577, "ARG_OF_PERICENTER": 334.4917, "MEAN_ANOMALY": 25.5767, "EPHEMERIS_TYPE": 0, "CLASSIFICATION_TYPE": "U", "NORAD_CAT_ID": 39419, "ELEMENT_SET_NO": 999, "REV_AT_EPOCH": 65769, "BSTAR": 0.00035687164, "MEAN_MOTION_DOT": 5.481e-05, "MEAN_MOTION_DDOT": 0}, "tle": {"line1": "1 39419U 13066D   25342.93319582  .00005481  00000+0  35687-3 0  9997", "line2": "2 39419  97.4446 333.4577 0011015 334.4917  25.5767 15.08296266657693"}}, "geometry": {"type": "Point", "coordinates": [-14.320401235806369, -57.50512040590741]}}]}